start=new Date('2021-11-14T00:00:00.000Z').valueOf();
sats=[{"TLE_LINE2":"2 46137  53.0528 175.1417 0001636  76.4936 283.6235 15.06392523 68686","PERIOD":"95.593","ARG_OF_PERICENTER":"76.4936","ELEMENT_SET_NO":"999","OBJECT_TYPE":"PAYLOAD","MEAN_MOTION_DOT":"-0.00000546","GP_ID":"189710226","ECCENTRICITY":"0.00016360","RA_OF_ASC_NODE":"175.1417","SITE":"AFETR","FILE":"3214514","REF_FRAME":"TEME","BSTAR":"-0.00001777700000","REV_AT_EPOCH":"6868","APOAPSIS":"548.369","INCLINATION":"53.0528","NORAD_CAT_ID":"46137","MEAN_MOTION_DDOT":"0.0000000000000","LAUNCH_DATE":"2020-08-18","OBJECT_NAME":"STARLINK-1586","RCS_SIZE":"LARGE","SEMIMAJOR_AXIS":"6925.371","CENTER_NAME":"EARTH","DECAY_DATE":null,"TIME_SYSTEM":"UTC","OBJECT_ID":"2020-057W","COUNTRY_CODE":"US","EPHEMERIS_TYPE":"0","MEAN_MOTION":"15.06392523","MEAN_ELEMENT_THEORY":"SGP4","EPOCH":"2021-11-13T21:22:21.212256","TLE_LINE1":"1 46137U 20057W   21317.89052329 -.00000546  00000-0 -17777-4 0  9997","CLASSIFICATION_TYPE":"U","MEAN_ANOMALY":"283.6235","PERIAPSIS":"546.103"},{"BSTAR":"0.00011854000000","REV_AT_EPOCH":"6841","INCLINATION":"53.0540","APOAPSIS":"548.439","NORAD_CAT_ID":"46138","MEAN_MOTION_DDOT":"0.0000000000000","ECCENTRICITY":"0.00017570","RA_OF_ASC_NODE":"194.8537","SITE":"AFETR","FILE":"3214514","REF_FRAME":"TEME","PERIOD":"95.592","TLE_LINE2":"2 46138  53.0540 194.8537 0001757  72.7437 287.3744 15.06397278 68410","ELEMENT_SET_NO":"999","ARG_OF_PERICENTER":"72.7437","OBJECT_TYPE":"PAYLOAD","MEAN_MOTION_DOT":"0.00001484","GP_ID":"189710477","PERIAPSIS":"546.005","EPOCH":"2021-11-13T22:55:14.651616","TLE_LINE1":"1 46138U 20057X   21317.95503069  .00001484  00000-0  11854-3 0  9996","CLASSIFICATION_TYPE":"U","MEAN_ANOMALY":"287.3744","CENTER_NAME":"EARTH","DECAY_DATE":null,"TIME_SYSTEM":"UTC","OBJECT_ID":"2020-057X","MEAN_MOTION":"15.06397278","COUNTRY_CODE":"US","EPHEMERIS_TYPE":"0","MEAN_ELEMENT_THEORY":"SGP4","LAUNCH_DATE":"2020-08-18","OBJECT_NAME":"STARLINK-1590","RCS_SIZE":"LARGE","SEMIMAJOR_AXIS":"6925.357"},{"ECCENTRICITY":"0.00017570","RA_OF_ASC_NODE":"155.3421","REF_FRAME":"TEME","SITE":"AFETR","FILE":"3214514","OBJECT_TYPE":"PAYLOAD","MEAN_MOTION_DOT":"0.00000800","ARG_OF_PERICENTER":"74.6757","ELEMENT_SET_NO":"999","TLE_LINE2":"2 46140  53.0528 155.3421 0001757  74.6757 285.4426 15.06398745 70227","PERIOD":"95.592","GP_ID":"189710728","REV_AT_EPOCH":"7022","BSTAR":"0.00007258800000","MEAN_MOTION_DDOT":"0.0000000000000","NORAD_CAT_ID":"46140","APOAPSIS":"548.434","INCLINATION":"53.0528","TIME_SYSTEM":"UTC","DECAY_DATE":null,"CENTER_NAME":"EARTH","MEAN_ELEMENT_THEORY":"SGP4","COUNTRY_CODE":"US","EPHEMERIS_TYPE":"0","MEAN_MOTION":"15.06398745","OBJECT_ID":"2020-057Z","LAUNCH_DATE":"2020-08-18","RCS_SIZE":"LARGE","SEMIMAJOR_AXIS":"6925.352","OBJECT_NAME":"STARLINK-1594","PERIAPSIS":"546.001","EPOCH":"2021-11-13T20:21:19.461024","MEAN_ANOMALY":"285.4426","CLASSIFICATION_TYPE":"U","TLE_LINE1":"1 46140U 20057Z   21317.84814191  .00000800  00000-0  72588-4 0  9991"},{"MEAN_MOTION_DDOT":"0.0000000000000","INCLINATION":"53.0527","APOAPSIS":"548.381","NORAD_CAT_ID":"46141","REV_AT_EPOCH":"6896","BSTAR":"0.00008081100000","GP_ID":"189709476","MEAN_MOTION_DOT":"0.00000922","OBJECT_TYPE":"PAYLOAD","ARG_OF_PERICENTER":"83.3050","ELEMENT_SET_NO":"999","TLE_LINE2":"2 46141  53.0527 155.1434 0001681  83.3050 276.8130 15.06398880 68962","PERIOD":"95.592","REF_FRAME":"TEME","FILE":"3214514","SITE":"AFETR","RA_OF_ASC_NODE":"155.1434","ECCENTRICITY":"0.00016810","MEAN_ANOMALY":"276.8130","CLASSIFICATION_TYPE":"U","TLE_LINE1":"1 46141U 20057AA  21317.89237159  .00000922  00000-0  80811-4 0  9993","EPOCH":"2021-11-13T21:25:00.905376","PERIAPSIS":"546.053","SEMIMAJOR_AXIS":"6925.352","RCS_SIZE":"LARGE","OBJECT_NAME":"STARLINK-1596","LAUNCH_DATE":"2020-08-18","MEAN_ELEMENT_THEORY":"SGP4","COUNTRY_CODE":"US","MEAN_MOTION":"15.06398880","EPHEMERIS_TYPE":"0","OBJECT_ID":"2020-057AA","TIME_SYSTEM":"UTC","DECAY_DATE":null,"CENTER_NAME":"EARTH"},{"COUNTRY_CODE":"US","MEAN_MOTION":"15.06386045","EPHEMERIS_TYPE":"0","MEAN_ELEMENT_THEORY":"SGP4","OBJECT_ID":"2020-057AB","TIME_SYSTEM":"UTC","CENTER_NAME":"EARTH","DECAY_DATE":null,"SEMIMAJOR_AXIS":"6925.391","RCS_SIZE":"LARGE","OBJECT_NAME":"STARLINK-1597","LAUNCH_DATE":"2020-08-18","PERIAPSIS":"546.132","MEAN_ANOMALY":"293.2002","TLE_LINE1":"1 46142U 20057AB  21317.91080686  .00001188  00000-0  98691-4 0  9998","CLASSIFICATION_TYPE":"U","EPOCH":"2021-11-13T21:51:33.712704","SITE":"AFETR","FILE":"3214514","REF_FRAME":"TEME","ECCENTRICITY":"0.00016230","RA_OF_ASC_NODE":"195.0595","GP_ID":"189709726","MEAN_MOTION_DOT":"0.00001188","OBJECT_TYPE":"PAYLOAD","TLE_LINE2":"2 46142  53.0555 195.0595 0001623  66.9158 293.2002 15.06386045 68407","PERIOD":"95.593","ELEMENT_SET_NO":"999","ARG_OF_PERICENTER":"66.9158","MEAN_MOTION_DDOT":"0.0000000000000","NORAD_CAT_ID":"46142","APOAPSIS":"548.380","INCLINATION":"53.0555","REV_AT_EPOCH":"6840","BSTAR":"0.00009869100000"},{"MEAN_ANOMALY":"285.9537","CLASSIFICATION_TYPE":"U","TLE_LINE1":"1 46143U 20057AC  21317.84692303  .00003611  00000-0  92334-4 0  9997","EPOCH":"2021-11-13T20:19:34.149792","PERIAPSIS":"438.854","RCS_SIZE":"LARGE","SEMIMAJOR_AXIS":"6817.825","OBJECT_NAME":"STARLINK-1599","LAUNCH_DATE":"2020-08-18","MEAN_ELEMENT_THEORY":"SGP4","EPHEMERIS_TYPE":"0","COUNTRY_CODE":"US","MEAN_MOTION":"15.42176029","OBJECT_ID":"2020-057AC","TIME_SYSTEM":"UTC","DECAY_DATE":null,"CENTER_NAME":"EARTH","MEAN_MOTION_DDOT":"0.0000000000000","APOAPSIS":"440.527","NORAD_CAT_ID":"46143","INCLINATION":"53.0546","REV_AT_EPOCH":"6878","BSTAR":"0.00009233400000","GP_ID":"189710978","MEAN_MOTION_DOT":"0.00003611","OBJECT_TYPE":"PAYLOAD","ARG_OF_PERICENTER":"74.1603","ELEMENT_SET_NO":"999","TLE_LINE2":"2 46143  53.0546 167.9677 0001227  74.1603 285.9537 15.42176029 68784","PERIOD":"93.375","REF_FRAME":"TEME","FILE":"3214514","SITE":"AFETR","ECCENTRICITY":"0.00012270","RA_OF_ASC_NODE":"167.9677"},{"LAUNCH_DATE":"2020-08-18","SEMIMAJOR_AXIS":"6925.337","RCS_SIZE":"LARGE","OBJECT_NAME":"STARLINK-1606","TIME_SYSTEM":"UTC","DECAY_DATE":null,"CENTER_NAME":"EARTH","MEAN_ELEMENT_THEORY":"SGP4","EPHEMERIS_TYPE":"0","COUNTRY_CODE":"US","MEAN_MOTION":"15.06403708","OBJECT_ID":"2020-057AD","EPOCH":"2021-11-13T21:01:08.379552","MEAN_ANOMALY":"290.4226","CLASSIFICATION_TYPE":"U","TLE_LINE1":"1 46144U 20057AD  21317.87579143  .00000125  00000-0  27284-4 0  9996","PERIAPSIS":"545.880","OBJECT_TYPE":"PAYLOAD","MEAN_MOTION_DOT":"0.00000125","ARG_OF_PERICENTER":"69.6968","ELEMENT_SET_NO":"999","TLE_LINE2":"2 46144  53.0534 175.2157 0001909  69.6968 290.4226 15.06403708 56934","PERIOD":"95.592","GP_ID":"189711229","ECCENTRICITY":"0.00019090","RA_OF_ASC_NODE":"175.2157","REF_FRAME":"TEME","SITE":"AFETR","FILE":"3214514","REV_AT_EPOCH":"5693","BSTAR":"0.00002728400000","MEAN_MOTION_DDOT":"0.0000000000000","APOAPSIS":"548.524","INCLINATION":"53.0534","NORAD_CAT_ID":"46144"},{"FILE":"3214514","SITE":"AFETR","REF_FRAME":"TEME","RA_OF_ASC_NODE":"195.0121","ECCENTRICITY":"0.00015590","GP_ID":"189709977","OBJECT_TYPE":"PAYLOAD","MEAN_MOTION_DOT":"0.00000205","PERIOD":"95.593","TLE_LINE2":"2 46146  53.0526 195.0121 0001559  78.4116 281.7048 15.06390496 68412","ARG_OF_PERICENTER":"78.4116","ELEMENT_SET_NO":"999","MEAN_MOTION_DDOT":"0.0000000000000","NORAD_CAT_ID":"46146","APOAPSIS":"548.322","INCLINATION":"53.0526","REV_AT_EPOCH":"6841","BSTAR":"0.00003266100000","COUNTRY_CODE":"US","MEAN_MOTION":"15.06390496","EPHEMERIS_TYPE":"0","MEAN_ELEMENT_THEORY":"SGP4","OBJECT_ID":"2020-057AF","TIME_SYSTEM":"UTC","CENTER_NAME":"EARTH","DECAY_DATE":null,"RCS_SIZE":"LARGE","SEMIMAJOR_AXIS":"6925.378","OBJECT_NAME":"STARLINK-1608","LAUNCH_DATE":"2020-08-18","PERIAPSIS":"546.163","MEAN_ANOMALY":"281.7048","TLE_LINE1":"1 46146U 20057AF  21317.92186623  .00000205  00000-0  32661-4 0  9995","CLASSIFICATION_TYPE":"U","EPOCH":"2021-11-13T22:07:29.242272"},{"APOAPSIS":"549.007","INCLINATION":"53.0524","NORAD_CAT_ID":"46147","MEAN_MOTION_DDOT":"0.0000000000000","BSTAR":"0.00129800000000","REV_AT_EPOCH":"6967","REF_FRAME":"TEME","FILE":"3214514","SITE":"AFETR","RA_OF_ASC_NODE":"194.7926","ECCENTRICITY":"0.00022170","GP_ID":"189710227","ARG_OF_PERICENTER":"83.0327","ELEMENT_SET_NO":"999","TLE_LINE2":"2 46147  53.0524 194.7926 0002217  83.0327 277.0914 15.06315814 69678","PERIOD":"95.597","MEAN_MOTION_DOT":"0.00019061","OBJECT_TYPE":"PAYLOAD","PERIAPSIS":"545.936","CLASSIFICATION_TYPE":"U","TLE_LINE1":"1 46147U 20057AG  21317.96980597  .00019061  00000-0  12980-2 0  9992","MEAN_ANOMALY":"277.0914","EPOCH":"2021-11-13T23:16:31.235808","OBJECT_ID":"2020-057AG","MEAN_ELEMENT_THEORY":"SGP4","COUNTRY_CODE":"US","MEAN_MOTION":"15.06315814","EPHEMERIS_TYPE":"0","DECAY_DATE":null,"CENTER_NAME":"EARTH","TIME_SYSTEM":"UTC","OBJECT_NAME":"STARLINK-1611","SEMIMAJOR_AXIS":"6925.607","RCS_SIZE":"LARGE","LAUNCH_DATE":"2020-08-18"},{"LAUNCH_DATE":"2020-08-18","RCS_SIZE":"LARGE","SEMIMAJOR_AXIS":"6925.360","OBJECT_NAME":"STARLINK-1616","TIME_SYSTEM":"UTC","CENTER_NAME":"EARTH","DECAY_DATE":null,"COUNTRY_CODE":"US","MEAN_MOTION":"15.06396174","EPHEMERIS_TYPE":"0","MEAN_ELEMENT_THEORY":"SGP4","OBJECT_ID":"2020-057AH","EPOCH":"2021-11-13T21:48:53.950464","MEAN_ANOMALY":"287.1515","TLE_LINE1":"1 46148U 20057AH  21317.90895776  .00000977  00000-0  84475-4 0  9997","CLASSIFICATION_TYPE":"U","PERIAPSIS":"546.101","OBJECT_TYPE":"PAYLOAD","MEAN_MOTION_DOT":"0.00000977","PERIOD":"95.592","TLE_LINE2":"2 46148  53.0527 175.0564 0001623  72.9652 287.1515 15.06396174 68687","ARG_OF_PERICENTER":"72.9652","ELEMENT_SET_NO":"999","GP_ID":"189710478","RA_OF_ASC_NODE":"175.0564","ECCENTRICITY":"0.00016230","SITE":"AFETR","FILE":"3214514","REF_FRAME":"TEME","REV_AT_EPOCH":"6868","BSTAR":"0.00008447500000","MEAN_MOTION_DDOT":"0.0000000000000","INCLINATION":"53.0527","APOAPSIS":"548.349","NORAD_CAT_ID":"46148"}];
